{"fetched_at":"2026-03-30T09:12:31Z","count":15922,"tles":[{"name":"KUIPER-00157","line1":"1 65970U 25228Z   26087.83050435  .00004758  00000+0  65234-3 0  9993","line2":"2 65970  51.9016 253.5787 0000275  89.2677 270.8317 14.79957068 26373","category":"Other"}]}